ION SCV-014             
1 62630U 25009X   26068.71776957  .00001812  00000+0  13229-3 0  9995
2 62630  97.4923 144.8636 0006450 112.6479 247.5430 15.04884649 63025
STARLINK-34909          
1 65401U 25191Y   26068.63982076  .00005148  00000+0  36068-3 0  9990
2 65401  97.6021 301.5048 0002553  79.2579 280.8935 15.05650911 30278
